[{"OBJECT_NAME":"OBJECT AS","OBJECT_ID":"2023-085AS","EPOCH":"2026-03-09T22:43:55.521696","MEAN_MOTION":15.33336233,"ECCENTRICITY":0.00083243,"INCLINATION":97.4812,"RA_OF_ASC_NODE":180.8852,"ARG_OF_PERICENTER":80.6036,"MEAN_ANOMALY":279.6147,"EPHEMERIS_TYPE":0,"CLASSIFICATION_TYPE":"U","NORAD_CAT_ID":57044,"ELEMENT_SET_NO":999,"REV_AT_EPOCH":15162,"BSTAR":0.00067677795,"MEAN_MOTION_DOT":0.00021782,"MEAN_MOTION_DDOT":0},{"OBJECT_NAME":"STARLINK-34179","OBJECT_ID":"2025-110H","EPOCH":"2026-03-09T22:07:33.881952","MEAN_MOTION":15.3021338,"ECCENTRICITY":0.00012899,"INCLINATION":53.16,"RA_OF_ASC_NODE":25.9987,"ARG_OF_PERICENTER":106.8766,"MEAN_ANOMALY":253.2376,"EPHEMERIS_TYPE":0,"CLASSIFICATION_TYPE":"U","NORAD_CAT_ID":64103,"ELEMENT_SET_NO":999,"REV_AT_EPOCH":4591,"BSTAR":0.00078668882,"MEAN_MOTION_DOT":0.00023022,"MEAN_MOTION_DDOT":0}]
